[{"OBJECT_NAME":"LEMUR-2-ANDIS","OBJECT_ID":"2017-042P","EPOCH":"2026-03-09T13:25:33.116448","MEAN_MOTION":15.30557934,"ECCENTRICITY":0.0009101,"INCLINATION":97.3659,"RA_OF_ASC_NODE":249.795,"ARG_OF_PERICENTER":4.3248,"MEAN_ANOMALY":355.807,"EPHEMERIS_TYPE":0,"CLASSIFICATION_TYPE":"U","NORAD_CAT_ID":42838,"ELEMENT_SET_NO":999,"REV_AT_EPOCH":47319,"BSTAR":0.00079875,"MEAN_MOTION_DOT":0.00023598,"MEAN_MOTION_DDOT":0},{"OBJECT_NAME":"STARLINK-35430","OBJECT_ID":"2025-232R","EPOCH":"2026-03-09T22:22:58.830240","MEAN_MOTION":15.30205842,"ECCENTRICITY":0.00016231,"INCLINATION":53.1586,"RA_OF_ASC_NODE":102.7167,"ARG_OF_PERICENTER":87.7013,"MEAN_ANOMALY":272.4173,"EPHEMERIS_TYPE":0,"CLASSIFICATION_TYPE":"U","NORAD_CAT_ID":66020,"ELEMENT_SET_NO":999,"REV_AT_EPOCH":2345,"BSTAR":0.00073811173,"MEAN_MOTION_DOT":0.00021569,"MEAN_MOTION_DDOT":0}]
